{
    "links": {
        "self": "http://www.neowsapp.com/rest/v1/neo/3596212?api_key=iIulBulltgU6a56xZRHN4H3l9WmuAYTsLGpBGhQ2"
    },
    "id": "3596212",
    "neo_reference_id": "3596212",
    "name": "(2012 BE27)",
    "designation": "2012 BE27",
    "nasa_jpl_url": "http://ssd.jpl.nasa.gov/sbdb.cgi?sstr=3596212",
    "absolute_magnitude_h": 23.5,
    "estimated_diameter": {
        "kilometers": {
            "estimated_diameter_min": 0.0530340723,
            "estimated_diameter_max": 0.1185877909
        },
        "meters": {
            "estimated_diameter_min": 53.0340723319,
            "estimated_diameter_max": 118.5877908577
        },
        "miles": {
            "estimated_diameter_min": 0.0329538346,
            "estimated_diameter_max": 0.0736870142
        },
        "feet": {
            "estimated_diameter_min": 173.9963058693,
            "estimated_diameter_max": 389.0675677576
        }
    },
    "is_potentially_hazardous_asteroid": false,
    "close_approach_data": [
        {
            "close_approach_date": "2012-01-09",
            "close_approach_date_full": "2012-Jan-09 15:18",
            "epoch_date_close_approach": 1326122280000,
            "relative_velocity": {
                "kilometers_per_second": "11.0384261224",
                "kilometers_per_hour": "39738.3340406591",
                "miles_per_hour": "24691.8553932084"
            },
            "miss_distance": {
                "astronomical": "0.0436335048",
                "lunar": "16.9734333672",
                "kilometers": "6527479.378714776",
                "miles": "4055987.6072888688"
            },
            "orbiting_body": "Earth"
        }
    ],
    "orbital_data": {
        "orbit_id": "5",
        "orbit_determination_date": "2017-04-06 08:51:17",
        "first_observation_date": "2012-01-21",
        "last_observation_date": "2012-01-25",
        "data_arc_in_days": 4,
        "observations_used": 30,
        "orbit_uncertainty": "8",
        "minimum_orbit_intersection": ".0147792",
        "jupiter_tisserand_invariant": "3.691",
        "epoch_osculation": "2455949.5",
        "eccentricity": ".5020283975054483",
        "semi_major_axis": "1.959527490804387",
        "inclination": "12.68317806952059",
        "ascending_node_longitude": "284.8160886868988",
        "orbital_period": "1001.902517641058",
        "perihelion_distance": ".9757890447279888",
        "perihelion_argument": "157.9040165119267",
        "aphelion_distance": "2.943265936880786",
        "perihelion_time": "2455916.834423672008",
        "mean_anomaly": "11.73727710133385",
        "mean_motion": ".3593163942212727",
        "equinox": "J2000",
        "orbit_class": {
            "orbit_class_type": "APO",
            "orbit_class_description": "Near-Earth asteroid orbits which cross the Earth’s orbit similar to that of 1862 Apollo",
            "orbit_class_range": "a (semi-major axis) > 1.0 AU; q (perihelion) < 1.017 AU"
        }
    },
    "is_sentry_object": false
}